OBJECT_NAME,OBJECT_ID,EPOCH,MEAN_MOTION,ECCENTRICITY,INCLINATION,RA_OF_ASC_NODE,ARG_OF_PERICENTER,MEAN_ANOMALY,EPHEMERIS_TYPE,CLASSIFICATION_TYPE,NORAD_CAT_ID,ELEMENT_SET_NO,REV_AT_EPOCH,BSTAR,MEAN_MOTION_DOT,MEAN_MOTION_DDOT
STARLINK-3930,2022-051AM,2026-05-19T07:18:30.934080,15.08836751,.00010535,53.2160,162.1157,79.2347,280.8764,0,U,52568,999,22224,.41072753E-4,.366E-5,0
STARLINK-3927,2022-051AN,2026-05-19T07:29:06.999648,15.08834101,.00011158,53.2162,162.0855,77.7595,282.3522,0,U,52569,999,22224,.40126338E-4,.351E-5,0
STARLINK-3901,2022-051AQ,2026-05-19T07:23:49.102080,15.08834233,.00010691,53.2162,162.1007,79.4119,280.6993,0,U,52574,999,22224,.55857934E-4,.601E-5,0
STARLINK-3932,2022-051AS,2026-05-19T06:58:41.707200,15.08833536,.0001132,53.2160,162.1782,72.9151,287.1965,0,U,52576,999,22224,.1857971E-5,-.258E-5,0
STARLINK-3836,2022-051AT,2026-05-19T06:36:48.634560,15.08825629,.00011874,53.2163,177.2469,92.1551,267.9577,0,U,52577,999,22203,-.9610352E-5,-.441E-5,0
STARLINK-3833,2022-051AU,2026-05-19T06:42:06.369696,15.08837898,.00011729,53.2165,177.2317,72.6423,287.4697,0,U,52578,999,22203,.45116104E-4,.43E-5,0
STARLINK-3893,2022-051AV,2026-05-19T06:26:10.837536,15.08835317,.00010268,53.2160,177.2823,71.5264,288.5839,0,U,52579,999,22203,.3255797E-4,.23E-5,0
STARLINK-3919,2022-051AW,2026-05-19T06:32:51.836352,15.08834647,.00009342,53.2159,177.2687,77.4701,282.6396,0,U,52580,999,22203,.25432187E-4,.117E-5,0
STARLINK-3915,2022-051AX,2026-05-19T06:52:01.047072,15.08829993,.00012408,53.2165,162.2020,86.1619,273.9515,0,U,52581,999,22224,-.33682433E-4,-.824E-5,0
STARLINK-3895,2022-051AZ,2026-05-19T06:46:42.999168,15.08836358,.00011699,53.2163,162.2159,73.9587,286.1534,0,U,52583,999,22224,.12391555E-4,-.91E-6,0
STARLINK-3922,2022-051BA,2026-05-19T06:57:18.929088,15.08834645,.00009727,53.2159,162.1820,53.0847,307.0234,0,U,52584,999,22224,.30395104E-4,.196E-5,0
STARLINK-3906,2022-051BB,2026-05-19T06:30:48.790656,15.08838245,.00012611,53.2160,162.2292,82.5548,277.5588,0,U,52585,999,22224,-.46319099E-4,-.1025E-4,0
STARLINK-3910,2022-051BC,2026-05-19T06:41:25.626912,15.08844105,.00011931,53.2159,162.2337,73.3744,286.7379,0,U,52586,999,22224,.42983295E-4,.396E-5,0
STARLINK-3867,2022-051BD,2026-05-19T06:10:59.742624,15.08830559,.00009386,53.2171,162.1839,79.2733,280.8365,0,U,52587,999,22224,.10688348E-4,-.118E-5,0
STARLINK-3917,2022-051BE,2026-05-19T08:00:53.947008,15.08841200,.00009097,53.2159,161.9875,79.6294,280.4801,0,U,52588,999,22225,.4171923E-4,.376E-5,0
STARLINK-4019,2022-052A,2026-05-19T05:45:06.860736,15.08839690,.00013783,53.2181,327.4098,89.0477,271.0674,0,U,52598,999,22223,.19238923E-4,.18E-6,0
STARLINK-4024,2022-052B,2026-05-19T05:27:15.912000,15.08817602,.00012992,53.2183,322.5713,91.8634,268.2507,0,U,52599,999,22230,.10617346E-3,.1401E-4,0
STARLINK-4026,2022-052C,2026-05-19T04:55:26.048640,15.08832480,.00016993,53.2175,322.5612,81.5064,278.6121,0,U,52600,999,22230,.54043167E-4,.572E-5,0
STARLINK-4027,2022-052D,2026-05-18T19:33:43.166880,15.08835064,.00012121,53.2172,324.3151,90.4677,269.6454,0,U,52601,999,22224,.27162782E-4,.144E-5,0
STARLINK-4012,2022-052E,2026-05-19T05:00:44.042976,15.08835116,.00013326,53.2170,322.5462,90.9300,269.1845,0,U,52602,999,22230,.34743996E-4,.265E-5,0
STARLINK-4016,2022-052F,2026-05-18T23:54:45.605088,15.08850952,.00015302,53.2175,323.5128,86.9662,273.1505,0,U,52603,999,22227,.16571428E-3,.2351E-4,0
STARLINK-4013,2022-052G,2026-05-19T04:50:07.907424,15.08841599,.00013124,53.2172,322.5802,92.1946,267.9196,0,U,52604,999,22150,-.32796E-6,-.293E-5,0
STARLINK-4000,2022-052H,2026-05-18T21:12:26.002656,15.08835584,.0001283,53.2175,328.7848,91.8661,268.2478,0,U,52605,999,22138,-.25257E-4,-.69E-5,0
STARLINK-3928,2022-052J,2026-05-19T04:44:50.354592,15.08842881,.00012253,53.2184,322.5984,79.9428,280.1702,0,U,52606,999,22150,-.5185814E-4,-.1113E-4,0
STARLINK-3947,2022-052K,2026-05-19T05:30:35.917632,15.08839256,.0001285,53.2176,327.4642,93.1140,266.9999,0,U,52607,999,22142,.26457553E-4,.133E-5,0
STARLINK-3979,2022-052L,2026-05-18T20:37:18.311808,15.08839151,.0001381,53.2182,324.1179,93.3070,266.8080,0,U,52608,999,22145,.24403E-4,.1E-5,0
STARLINK-3997,2022-052M,2026-05-19T05:53:42.949536,15.08842009,.00013594,53.2175,322.3359,88.2928,271.8220,0,U,52609,999,22151,.3487733E-4,.267E-5,0
STARLINK-3998,2022-052N,2026-05-19T05:34:31.275552,15.08835939,.00017044,53.2182,327.4416,105.8447,254.2733,0,U,52610,999,22143,.23813457E-4,.91E-6,0
STARLINK-3980,2022-052P,2026-05-19T03:48:32.384160,15.08840849,.00012509,53.2173,327.7718,69.1901,290.9225,0,U,52611,999,22142,-.53011812E-4,-.1131E-4,0
STARLINK-4002,2022-052Q,2026-05-18T22:07:23.784384,15.08840572,.0001275,53.2195,323.8367,100.6754,259.4381,0,U,52612,999,22146,-.37018E-4,-.877E-5,0
