STARLINK-3930           
1 52568U 22051AM  26139.30452470  .00000366  00000+0  41073-4 0  9995
2 52568  53.2160 162.1157 0001053  79.2347 280.8764 15.08836751222240
STARLINK-3927           
1 52569U 22051AN  26139.31188657  .00000351  00000+0  40126-4 0  9992
2 52569  53.2162 162.0855 0001115  77.7595 282.3522 15.08834101222240
STARLINK-3901           
1 52574U 22051AQ  26139.30820720  .00000601  00000+0  55858-4 0  9997
2 52574  53.2162 162.1007 0001069  79.4119 280.6993 15.08834233222244
STARLINK-3932           
1 52576U 22051AS  26139.29076050 -.00000258  00000+0  18580-5 0  9997
2 52576  53.2160 162.1782 0001132  72.9151 287.1965 15.08833536222245
STARLINK-3836           
1 52577U 22051AT  26139.27556290 -.00000441  00000+0 -96104-5 0  9998
2 52577  53.2163 177.2469 0001187  92.1551 267.9577 15.08825629222032
STARLINK-3833           
1 52578U 22051AU  26139.27924039  .00000430  00000+0  45116-4 0  9991
2 52578  53.2165 177.2317 0001172  72.6423 287.4697 15.08837898222033
STARLINK-3893           
1 52579U 22051AV  26139.26818099  .00000230  00000+0  32558-4 0  9993
2 52579  53.2160 177.2823 0001026  71.5264 288.5839 15.08835317222034
STARLINK-3919           
1 52580U 22051AW  26139.27282218  .00000117  00000+0  25432-4 0  9991
2 52580  53.2159 177.2687 0000934  77.4701 282.6396 15.08834647222038
STARLINK-3915           
1 52581U 22051AX  26139.28612323 -.00000824  00000+0 -33682-4 0  9990
2 52581  53.2165 162.2020 0001240  86.1619 273.9515 15.08829993222244
STARLINK-3895           
1 52583U 22051AZ  26139.28244212 -.00000091  00000+0  12392-4 0  9990
2 52583  53.2163 162.2159 0001169  73.9587 286.1534 15.08836358222245
STARLINK-3922           
1 52584U 22051BA  26139.28980242  .00000196  00000+0  30395-4 0  9999
2 52584  53.2159 162.1820 0000972  53.0847 307.0234 15.08834645222241
STARLINK-3906           
1 52585U 22051BB  26139.27139804 -.00001025  00000+0 -46319-4 0  9996
2 52585  53.2160 162.2292 0001261  82.5548 277.5588 15.08838245222248
STARLINK-3910           
1 52586U 22051BC  26139.27876883  .00000396  00000+0  42983-4 0  9993
2 52586  53.2159 162.2337 0001193  73.3744 286.7379 15.08844105222249
STARLINK-3867           
1 52587U 22051BD  26139.25763591 -.00000118  00000+0  10688-4 0  9993
2 52587  53.2171 162.1839 0000938  79.2733 280.8365 15.08830559222247
STARLINK-3917           
1 52588U 22051BE  26139.33395772  .00000376  00000+0  41719-4 0  9999
2 52588  53.2159 161.9875 0000909  79.6294 280.4801 15.08841200222252
STARLINK-4019           
1 52598U 22052A   26139.23966274  .00000018  00000+0  19239-4 0  9996
2 52598  53.2181 327.4098 0001378  89.0477 271.0674 15.08839690222235
STARLINK-4024           
1 52599U 22052B   26139.22726750  .00001401  00000+0  10617-3 0  9996
2 52599  53.2183 322.5713 0001299  91.8634 268.2507 15.08817602222306
STARLINK-4026           
1 52600U 22052C   26139.20516260  .00000572  00000+0  54043-4 0  9990
2 52600  53.2175 322.5612 0001699  81.5064 278.6121 15.08832480222303
STARLINK-4027           
1 52601U 22052D   26138.81508295  .00000144  00000+0  27163-4 0  9994
2 52601  53.2172 324.3151 0001212  90.4677 269.6454 15.08835064222242
STARLINK-4012           
1 52602U 22052E   26139.20884309  .00000265  00000+0  34744-4 0  9999
2 52602  53.2170 322.5462 0001332  90.9300 269.1845 15.08835116222301
STARLINK-4016           
1 52603U 22052F   26138.99636117  .00002351  00000+0  16571-3 0  9992
2 52603  53.2175 323.5128 0001530  86.9662 273.1505 15.08850952222272
STARLINK-4013           
1 52604U 22052G   26139.20148041 -.00000293  00000+0 -32796-6 0  9997
2 52604  53.2172 322.5802 0001312  92.1946 267.9196 15.08841599221509
STARLINK-4000           
1 52605U 22052H   26138.88363429 -.00000690  00000+0 -25257-4 0  9993
2 52605  53.2175 328.7848 0001283  91.8661 268.2478 15.08835584221388
STARLINK-3928           
1 52606U 22052J   26139.19780503 -.00001113  00000+0 -51858-4 0  9992
2 52606  53.2184 322.5984 0001225  79.9428 280.1702 15.08842881221501
STARLINK-3947           
1 52607U 22052K   26139.22958238  .00000133  00000+0  26458-4 0  9996
2 52607  53.2176 327.4642 0001285  93.1140 266.9999 15.08839256221426
STARLINK-3979           
1 52608U 22052L   26138.85923972  .00000100  00000+0  24403-4 0  9994
2 52608  53.2182 324.1179 0001381  93.3070 266.8080 15.08839151221451
STARLINK-3997           
1 52609U 22052M   26139.24563599  .00000267  00000+0  34877-4 0  9994
2 52609  53.2175 322.3359 0001359  88.2928 271.8220 15.08842009221519
STARLINK-3998           
1 52610U 22052N   26139.23230643  .00000091  00000+0  23813-4 0  9999
2 52610  53.2182 327.4416 0001704 105.8447 254.2733 15.08835939221434
STARLINK-3980           
1 52611U 22052P   26139.15870815 -.00001131  00000+0 -53012-4 0  9994
2 52611  53.2173 327.7718 0001250  69.1901 290.9225 15.08840849221424
STARLINK-4002           
1 52612U 22052Q   26138.92180306 -.00000877  00000+0 -37018-4 0  9992
2 52612  53.2195 323.8367 0001275 100.6754 259.4381 15.08840572221460
